IRIDIUM 136             
1 42962U 17061H   24122.38109842  .00000593  00000+0  20478-3 0  9994
2 42962  86.3992 349.8915 0002458  85.7249 274.4228 14.34217382343492
